HIERARCHY
ROOT Hips
{
	OFFSET 173.408295 91.952423 -518.280273
	CHANNELS 6 Xposition Yposition Zposition Zrotation Yrotation Xrotation 
	JOINT LeftUpLeg
	{
		OFFSET 0.103459 1.857827 10.548504
		CHANNELS 3 Zrotation Yrotation Xrotation
		JOINT LeftLeg
		{
			OFFSET 43.500008 0.000000 0.000004
			CHANNELS 3 Zrotation Yrotation Xrotation
			JOINT LeftFoot
			{
				OFFSET 42.372192 0.000011 0.000000
				CHANNELS 3 Zrotation Yrotation Xrotation
				JOINT LeftToe
				{
					OFFSET 17.299973 -0.000013 -0.000010
					CHANNELS 3 Zrotation Yrotation Xrotation
					End Site
					{
						OFFSET 0.000000 0.000000 0.000000
					}
				}
			}
		}
	}
	JOINT RightUpLeg
	{
		OFFSET 0.103454 1.857830 -10.548500
		CHANNELS 3 Zrotation Yrotation Xrotation
		JOINT RightLeg
		{
			OFFSET 43.500038 -0.000038 0.000004
			CHANNELS 3 Zrotation Yrotation Xrotation
			JOINT RightFoot
			{
				OFFSET 42.372253 0.000019 0.000024
				CHANNELS 3 Zrotation Yrotation Xrotation
				JOINT RightToe
				{
					OFFSET 17.299988 -0.000007 0.000004
					CHANNELS 3 Zrotation Yrotation Xrotation
					End Site
					{
						OFFSET 0.000000 0.000000 0.000000
					}
				}
			}
		}
	}
	JOINT Spine
	{
		OFFSET 6.901963 -2.603744 0.000004
		CHANNELS 3 Zrotation Yrotation Xrotation
		JOINT Spine1
		{
			OFFSET 12.588104 0.000008 -0.000010
			CHANNELS 3 Zrotation Yrotation Xrotation
			JOINT Spine2
			{
				OFFSET 12.343202 -0.000005 0.000010
				CHANNELS 3 Zrotation Yrotation Xrotation
				JOINT Neck
				{
					OFFSET 25.832897 0.000000 0.000001
					CHANNELS 3 Zrotation Yrotation Xrotation
					JOINT Head
					{
						OFFSET 11.766611 -0.000006 -0.000000
						CHANNELS 3 Zrotation Yrotation Xrotation
						End Site
						{
							OFFSET 0.000000 0.000000 0.000000
						}
					}
				}
				JOINT LeftShoulder
				{
					OFFSET 19.745899 -1.480366 6.000108
					CHANNELS 3 Zrotation Yrotation Xrotation
					JOINT LeftArm
					{
						OFFSET 11.284111 -0.000018 -0.000015
						CHANNELS 3 Zrotation Yrotation Xrotation
						JOINT LeftForeArm
						{
							OFFSET 33.000050 -0.000005 0.000028
							CHANNELS 3 Zrotation Yrotation Xrotation
							JOINT LeftHand
							{
								OFFSET 25.200012 0.000000 0.000002
								CHANNELS 3 Zrotation Yrotation Xrotation
								End Site
								{
									OFFSET 0.000000 0.000000 0.000000
								}
							}
						}
					}
				}
				JOINT RightShoulder
				{
					OFFSET 19.746111 -1.480335 -6.000074
					CHANNELS 3 Zrotation Yrotation Xrotation
					JOINT RightArm
					{
						OFFSET 11.284151 0.000036 0.000001
						CHANNELS 3 Zrotation Yrotation Xrotation
						JOINT RightForeArm
						{
							OFFSET 33.000092 -0.000035 0.000022
							CHANNELS 3 Zrotation Yrotation Xrotation
							JOINT RightHand
							{
								OFFSET 25.199768 0.000178 0.000417
								CHANNELS 3 Zrotation Yrotation Xrotation
								End Site
								{
									OFFSET 0.000000 0.000000 0.000000
								}
							}
						}
					}
				}
			}
		}
	}
}
MOTION
Frames: 91
Frame Time: 0.033333
173.706802 91.897400 -517.522095 88.883144 -0.251866 88.116496 175.425759 -4.497292 170.732080 -17.020724 1.102064 1.251272 77.611057 -1.676159 -2.928519 21.454551 0.003098 0.000001 176.598298 1.861502 -178.262145 -15.048210 4.308973 4.680697 77.763118 -2.799026 2.428542 21.454558 -0.003111 -0.000020 5.495136 -0.232790 0.229504 0.976501 -0.467404 0.457187 0.658414 -0.464496 0.460000 5.237083 0.415717 -17.159882 16.178222 7.995633 -17.454519 -165.966794 -77.208397 -15.827915 2.382148 64.162804 31.762900 -31.210444 -12.979929 1.123398 -1.729169 -10.793292 14.275207 -146.380503 72.882599 35.907940 -9.734455 -63.452287 -35.722200 -29.438064 12.804726 -1.104006 3.534206 7.640082 -10.911658 
173.831604 91.888710 -517.370117 88.869517 -0.228144 88.096545 175.532733 -4.423705 170.744047 -17.064340 1.099005 1.215046 77.729834 -1.629208 -2.861996 21.454551 0.003098 -0.000001 176.709985 1.943302 -178.193953 -15.066499 4.300944 4.618868 77.811694 -2.731517 2.523607 21.454560 -0.003118 -0.000019 5.429920 -0.257763 0.194855 0.846132 -0.516862 0.387992 0.528020 -0.514374 0.391114 4.860712 1.033068 -16.731925 16.728004 7.231995 -16.853570 -169.177625 -77.077408 -12.552543 -0.124742 64.317562 31.712442 -26.070742 -11.281348 0.920612 0.221891 -9.577596 11.783708 -148.833674 73.124791 33.385456 -10.311613 -63.462955 -36.793249 -26.932150 11.861122 -0.998249 4.721069 5.581610 -11.699546 
173.963699 91.878754 -517.228088 88.872721 -0.220447 88.251816 175.574439 -4.334395 170.812991 -17.125723 1.087865 1.249120 77.831426 -1.620713 -2.750975 21.454553 0.003091 0.000000 176.803558 2.038297 -178.218869 -15.108978 4.316943 4.710380 77.889647 -2.758059 2.679868 21.454558 -0.003106 -0.000018 5.372949 -0.283544 0.132848 0.732418 -0.567865 0.264099 0.414316 -0.566125 0.267527 4.386365 1.587566 -16.259926 17.168352 6.473052 -16.225493 -173.589968 -76.933427 -8.049522 -1.741463 64.066143 32.971973 -22.466540 -9.746230 0.767829 1.477895 -10.544960 10.167157 -151.316134 73.332333 30.834865 -9.908984 -63.315054 -38.268501 -26.044240 11.368214 -0.951664 5.554524 4.948117 -11.533946 
174.111404 91.866440 -517.102417 88.886552 -0.221982 88.541299 175.551844 -4.225395 170.928954 -17.225138 1.081131 1.333552 77.928511 -1.639193 -2.605680 21.454550 0.003078 -0.000000 176.876560 2.157896 -178.248171 -15.185344 4.355901 4.878398 77.987790 -2.831108 2.867810 21.454558 -0.003111 -0.000017 5.337859 -0.312471 0.060484 0.662562 -0.625264 0.119387 0.344447 -0.624417 0.123173 3.696206 2.066976 -15.851541 17.635099 5.787641 -15.663927 -179.135686 -76.748671 -2.387900 -2.236755 63.518396 35.537874 -20.864502 -8.768337 0.683700 2.331077 -12.519784 9.386442 -154.075407 73.451875 28.003316 -8.686591 -62.856667 -40.057738 -26.689132 11.246529 -0.954440 5.831005 5.618145 -10.349348 
174.279404 91.853188 -516.990723 88.900376 -0.204194 88.891886 175.520685 -4.100993 171.073918 -17.340455 1.076753 1.433410 78.020841 -1.663228 -2.439120 21.454555 0.003099 0.000002 176.962579 2.284399 -178.170389 -15.278604 4.361654 5.020639 78.080940 -2.881720 3.070646 21.454557 -0.003118 -0.000017 5.331180 -0.342511 -0.009133 0.649583 -0.684997 -0.019959 0.331474 -0.684981 -0.015815 2.858595 2.460902 -15.541132 18.113344 5.183129 -15.207438 175.702887 -76.544161 2.883377 -2.078744 62.824797 38.397449 -21.106949 -8.424782 0.664210 2.676556 -14.280881 9.468213 -156.766420 73.480473 25.243664 -7.481904 -62.118180 -41.819732 -28.193549 11.243434 -0.980255 5.365587 7.111207 -8.995976 
174.473404 91.841393 -516.888428 88.911509 -0.148142 89.218643 175.542542 -3.961499 171.233280 -17.425401 1.060377 1.508181 78.098835 -1.666775 -2.261662 21.454551 0.003084 -0.000001 177.080809 2.421997 -177.966111 -15.373526 4.327214 5.076870 78.149276 -2.873298 3.262715 21.454557 -0.003107 -0.000017 5.342308 -0.369605 -0.057603 0.672152 -0.738959 -0.117073 0.354026 -0.739514 -0.112614 2.165495 2.718159 -15.295235 18.441997 4.685912 -14.855001 172.491865 -76.460129 6.161774 -2.060083 62.147871 40.370516 -22.566663 -8.453074 0.684826 2.354765 -15.131526 10.169457 -158.717177 73.496093 23.242796 -7.087883 -61.333781 -43.284019 -29.664447 11.231229 -1.006481 4.273968 8.705768 -8.833893 
174.700302 91.831680 -516.793518 88.919849 -0.060896 89.475915 175.624859 -3.799387 171.398898 -17.469355 1.037057 1.538630 78.165436 -1.638561 -2.081975 21.454550 0.003088 -0.000000 177.218902 2.577904 -177.664804 -15.468900 4.263358 5.037186 78.180749 -2.806028 3.414732 21.454558 -0.003105 -0.000017 5.352818 -0.389879 -0.067098 0.693257 -0.779419 -0.136282 0.375138 -0.780107 -0.131561 1.846704 2.781380 -15.061838 18.595181 4.328404 -14.578047 171.515039 -76.558211 7.155268 -2.638036 61.580337 40.985021 -24.616012 -8.615046 0.724462 1.626883 -14.819584 11.047069 -159.705614 73.588144 22.227741 -7.579326 -60.736125 -44.173361 -30.634129 11.289270 -1.028909 3.123098 9.481741 -10.220497 
174.964401 91.822998 -516.710571 88.923585 0.026190 89.674243 175.712299 -3.612002 171.590690 -17.509962 1.011579 1.519285 78.236593 -1.574871 -1.900910 21.454555 0.003099 0.000002 177.335917 2.754498 -177.311561 -15.577339 4.186251 4.933067 78.178174 -2.705171 3.514852 21.454557 -0.003114 -0.000018 5.349969 -0.403182 -0.031538 0.687360 -0.806252 -0.065194 0.369227 -0.806489 -0.060324 1.864846 2.697322 -14.824167 18.737922 4.042792 -14.339448 171.861712 -76.730209 6.796548 -3.708611 61.110720 40.480653 -26.907310 -8.889110 0.778554 0.960901 -13.585729 11.863043 -160.026797 73.769294 21.895640 -8.520943 -60.430153 -44.151692 -31.108124 11.478341 -1.050570 2.517396 8.991910 -12.057656 
175.265900 91.811287 -516.642395 88.930265 0.093668 89.868692 175.751873 -3.390697 171.811728 -17.590838 0.995810 1.477391 78.326731 -1.492823 -1.710321 21.454553 0.003090 -0.000001 177.423548 2.957506 -176.927513 -15.692727 4.104817 4.808380 78.185565 -2.599157 3.577728 21.454555 -0.003109 -0.000019 5.336036 -0.414452 0.035726 0.659015 -0.829113 0.069365 0.340879 -0.828550 0.074370 2.012021 2.569671 -14.596189 19.008457 3.759452 -14.117283 172.450324 -76.846390 6.193009 -4.986345 60.687344 39.296107 -29.267975 -9.284645 0.845740 0.536858 -12.185502 12.581899 -160.176419 73.980347 21.739235 -9.521112 -60.334100 -43.147985 -31.305591 11.692118 -1.068405 2.556704 7.804395 -13.035407 
175.602005 91.794167 -516.580688 88.952777 0.158742 90.108896 175.765137 -3.130399 172.040895 -17.699156 0.986469 1.454901 78.428931 -1.417770 -1.493563 21.454553 0.003100 0.000001 177.520373 3.197198 -176.566073 -15.796197 4.031774 4.721031 78.215829 -2.512947 3.668402 21.454558 -0.003124 -0.000019 5.324385 -0.428728 0.114284 0.635103 -0.858043 0.226508 0.316975 -0.856531 0.231690 2.124611 2.449554 -14.395573 19.376862 3.509580 -13.916707 172.833115 -76.874360 5.801852 -6.392537 60.303453 37.770659 -31.483859 -9.720456 0.916716 0.191197 -11.490514 13.086580 -160.481114 74.182446 21.424075 -10.481813 -60.315481 -41.548116 -31.416715 11.850543 -1.080932 2.890870 6.944919 -12.649807 
175.968002 91.769630 -516.513794 88.997440 0.248183 90.407799 175.807430 -2.834396 172.279979 -17.793794 0.966178 1.459962 78.532805 -1.353479 -1.243828 21.454555 0.003097 -0.000000 177.642073 3.477708 -176.309599 -15.925657 3.979449 4.720846 78.255738 -2.458320 3.878635 21.454557 -0.003109 -0.000018 5.325397 -0.447877 0.189677 0.636524 -0.896724 0.377219 0.318381 -0.894278 0.382620 2.177953 2.355202 -14.232240 19.706721 3.329002 -13.751527 173.079931 -76.867762 5.550457 -7.962999 60.023019 36.110653 -33.332894 -10.143316 0.982504 -0.218423 -11.888795 13.226469 -160.987900 74.349205 20.902607 -11.471593 -60.250991 -39.884630 -31.554586 11.998341 -1.093313 3.150153 6.919068 -11.426309 
176.356598 91.734894 -516.437622 89.058324 0.363242 90.747888 175.889488 -2.514892 172.570166 -17.870693 0.918874 1.460648 78.643092 -1.280151 -0.972527 21.454553 0.003095 0.000001 177.741466 3.786998 -176.192858 -16.172256 3.940676 4.806619 78.323091 -2.429040 4.232603 21.454560 -0.003115 -0.000017 5.338670 -0.467135 0.253601 0.662457 -0.935596 0.504861 0.344338 -0.932386 0.510498 2.199702 2.288418 -14.087067 19.936947 3.161764 -13.604594 173.240413 -76.851014 5.387250 -9.583058 59.888246 34.433439 -34.763378 -10.572119 1.041733 -0.586154 -13.067104 12.983868 -161.630307 74.507754 20.242638 -12.495774 -60.111798 -38.424749 -31.801532 12.228849 -1.113300 3.232038 7.512751 -10.344466 
176.771393 91.686752 -516.353210 89.139761 0.486479 91.093270 175.992392 -2.156900 172.959296 -17.943952 0.844591 1.406912 78.768549 -1.167477 -0.698011 21.454553 0.003093 0.000000 177.736999 4.133700 -176.177858 -16.647556 3.905040 4.946444 78.451416 -2.413306 4.694497 21.454555 -0.003107 -0.000017 5.357651 -0.485975 0.304321 0.699904 -0.973635 0.606049 0.381770 -0.969822 0.611910 2.211547 2.297939 -13.923129 20.091613 2.891358 -13.429153 173.256108 -76.844648 5.371374 -11.054259 59.908607 32.808237 -35.859268 -11.005102 1.094919 -0.740482 -14.445877 12.477423 -162.235789 74.655361 19.620794 -13.518916 -59.913880 -37.130944 -32.203912 12.554382 -1.142707 3.160678 8.253545 -9.968664 
177.224701 91.614960 -516.260498 89.274677 0.619713 91.402527 176.106415 -1.714703 173.408012 -18.051587 0.762775 1.294193 78.932446 -1.013838 -0.423962 21.454553 0.003091 -0.000002 177.554797 4.575697 -176.212009 -17.506736 3.854721 5.029045 78.701797 -2.340140 5.240901 21.454560 -0.003114 -0.000018 5.380979 -0.510701 0.346118 0.746063 -1.023466 0.689306 0.427928 -1.019136 0.695482 2.209544 2.406741 -13.677438 20.255146 2.425686 -13.154249 173.077021 -76.846329 5.554032 -12.268691 60.016299 31.355114 -36.705515 -11.355275 1.137609 -0.670134 -15.652406 11.839310 -162.624605 74.800441 19.221153 -14.508430 -59.705231 -35.851578 -32.774478 12.906731 -1.177530 3.006102 8.794101 -10.075924 
177.723694 91.510277 -516.161499 89.487718 0.773992 91.631366 176.228853 -1.167994 173.800871 -18.234334 0.688864 1.159566 79.159304 -0.843705 -0.141275 21.454551 0.003085 -0.000002 177.134563 5.132705 -176.265244 -18.866973 3.754300 5.025377 79.096903 -2.194054 5.861391 21.454562 -0.003100 -0.000017 5.411963 -0.546505 0.383716 0.807458 -1.095450 0.763999 0.489332 -1.090687 0.770598 2.175154 2.646767 -13.284037 20.469959 1.680168 -12.707222 172.800589 -76.841875 5.835992 -13.235015 60.100098 30.300092 -37.291648 -11.550763 1.164372 -0.687557 -16.768792 11.305268 -162.859099 74.955541 18.979474 -15.408632 -59.529306 -34.520466 -33.500135 13.253838 -1.215629 2.856100 9.019154 -10.184328 
178.260895 91.365738 -516.061523 89.778124 0.952862 91.746093 176.350020 -0.549192 174.070294 -18.523388 0.590143 1.026332 79.468909 -0.671345 0.158760 21.454551 0.003081 -0.000001 176.396425 5.775296 -176.304012 -20.855086 3.546733 4.941918 79.591744 -1.981118 6.550084 21.454558 -0.003108 -0.000016 5.456169 -0.593496 0.423995 0.895158 -1.190039 0.843845 0.577022 -1.184781 0.851004 2.093137 3.030847 -12.730701 20.660719 0.649829 -12.077109 172.383524 -76.797138 6.262507 -14.010379 60.064684 29.874179 -37.541687 -11.619365 1.174903 -1.025972 -18.067488 11.150251 -162.979911 75.118414 18.854198 -16.219894 -59.394765 -33.166808 -34.335938 13.583379 -1.255441 2.730480 9.073536 -10.132128 
178.819107 91.177269 -515.962097 90.135800 1.174981 91.750327 176.476543 0.106596 174.229520 -18.934627 0.435494 0.895837 79.864364 -0.496611 0.481583 21.454553 0.003096 -0.000000 175.279142 6.445403 -176.296130 -23.603230 3.155901 4.796413 80.008003 -1.733905 7.189692 21.454555 -0.003115 -0.000016 5.527053 -0.651056 0.469077 1.036021 -1.306037 0.932779 0.717885 -1.300253 0.940658 1.953776 3.537074 -12.084141 20.663651 -0.551506 -11.335630 171.632504 -76.716931 7.030755 -14.647843 59.919713 29.968206 -37.445211 -11.540087 1.167374 -1.516197 -19.659552 11.083475 -163.095779 75.265932 18.734227 -16.951257 -59.287613 -31.899476 -35.221151 13.947544 -1.299150 2.578149 9.196203 -10.029239 
179.383499 90.957901 -515.860779 90.509774 1.475320 91.688555 176.646915 0.746890 174.354089 -19.440165 0.222100 0.756263 80.323790 -0.313853 0.820191 21.454557 0.003086 0.000000 173.725930 7.098592 -176.345184 -27.192274 2.649691 4.722248 79.852623 -1.561448 7.591594 21.454558 -0.003105 -0.000016 5.642527 -0.708072 0.512292 1.265999 -1.421445 1.017316 0.947858 -1.415146 1.025891 1.747321 4.076235 -11.433986 20.383426 -1.746656 -10.579930 170.581092 -76.641962 8.105138 -15.272566 59.772358 30.125639 -37.140281 -11.184110 1.136708 -1.110217 -21.189948 9.694689 -163.282311 75.404892 18.542078 -17.598727 -59.200808 -30.688279 -36.151621 14.342892 -1.346535 2.339189 9.501159 -10.047393 
179.932999 90.632637 -515.775085 91.065068 1.823706 91.567592 176.701256 1.518498 174.380317 -20.284767 -0.022213 0.637726 80.957208 -0.148164 1.167714 21.454551 0.003089 0.000001 171.680097 7.961711 -176.722607 -31.659044 2.190667 4.698386 79.460242 -1.417691 7.951787 21.454558 -0.003122 -0.000017 5.802764 -0.801675 0.551174 1.585156 -1.610532 1.091914 1.266994 -1.603779 1.101636 1.452090 4.624752 -10.847853 19.912921 -2.867089 -9.871476 169.139881 -76.654086 9.574213 -15.942683 59.773110 29.996354 -36.835268 -10.507163 1.085001 1.060309 -22.250315 5.590657 -163.522597 75.512659 18.295355 -18.100415 -59.122117 -29.577820 -37.119811 14.797916 -1.399372 2.021519 9.917190 -10.145145 
180.456100 90.254707 -515.700012 91.699784 2.153591 91.378731 176.666695 2.313202 174.232429 -21.271924 -0.291136 0.582245 81.664112 -0.026832 1.533716 21.454550 0.003092 -0.000001 168.972460 8.847588 -177.513980 -37.040307 1.762042 4.804325 78.153920 -1.280602 8.391707 21.454563 -0.003105 -0.000019 5.982240 -0.915681 0.586790 1.942559 -1.840805 1.158807 1.624357 -1.833639 1.169893 1.090642 5.210611 -10.322796 19.449341 -3.956214 -9.201480 167.662006 -76.759360 11.076897 -16.690848 59.994121 29.650503 -36.652066 -9.772756 1.032326 4.480780 -22.821479 -0.304857 -163.743704 75.578236 18.068632 -18.334910 -59.078780 -28.653993 -38.140726 15.308402 -1.457842 1.667943 10.302186 -10.307627 
180.940002 89.870293 -515.595215 92.362060 2.435975 91.132304 176.660835 3.083593 173.928664 -22.145031 -0.580764 0.590855 82.334215 0.049238 1.910486 21.454553 0.003093 0.000000 165.641021 9.503899 -178.567250 -43.094990 1.170646 5.146102 75.584000 -1.251125 8.693250 21.454560 -0.003110 -0.000017 6.156251 -1.044516 0.608341 2.289075 -2.100614 1.196687 1.970816 -2.093196 1.209334 0.719232 5.886186 -9.802766 19.123985 -5.069664 -8.511939 166.607015 -76.882003 12.147269 -17.327174 60.382028 29.360965 -36.647216 -9.361796 1.005081 7.521105 -23.120820 -4.937860 -163.924991 75.585865 17.883245 -18.222210 -59.124317 -28.000576 -39.175274 15.838775 -1.518760 1.316912 10.597146 -10.601400 
181.369003 89.493713 -515.416687 93.056813 2.687075 90.912885 176.774940 3.875298 173.666466 -22.790306 -0.851885 0.592546 82.926037 0.117589 2.242914 21.454550 0.003085 -0.000001 162.197472 10.120690 -179.592666 -49.070794 0.779287 5.734240 73.032918 -1.311803 9.242080 21.454560 -0.003091 -0.000020 6.321136 -1.187818 0.591558 2.617925 -2.388489 1.156942 2.299609 -2.381329 1.171349 0.344506 6.644758 -9.238032 18.920307 -6.217739 -7.757495 166.256695 -76.918681 12.502759 -17.634054 60.783821 29.190220 -36.871345 -9.347355 1.009397 9.151479 -22.985981 -6.673049 -163.958718 75.536981 17.849101 -17.868373 -59.299538 -27.576879 -40.089184 16.271983 -1.570954 0.941731 10.975494 -10.978253 
181.754303 89.268120 -515.140015 93.441325 2.893178 90.865620 177.134249 4.425091 173.700603 -22.922436 -1.048471 0.537813 83.286138 0.206962 2.492943 21.454551 0.003084 -0.000001 159.113901 10.344094 179.998284 -54.060186 0.600655 6.997202 70.830032 -1.919684 9.674061 21.454560 -0.003110 -0.000016 6.470228 -1.268900 0.524501 2.916984 -2.550419 1.017679 2.598613 -2.544097 1.033088 0.048444 7.448483 -8.638541 18.680965 -7.381969 -6.955575 166.279972 -76.796776 12.483673 -17.613198 61.049173 29.073253 -37.282338 -9.462238 1.026727 9.657832 -22.014977 -6.917086 -163.818795 75.441912 17.993080 -17.389660 -59.597478 -27.400701 -40.657070 16.500701 -1.601079 0.554036 11.702599 -11.124463 
182.084595 89.171463 -514.774292 93.503418 2.989171 91.034073 177.519731 4.687098 173.894758 -22.858449 -1.126466 0.522659 83.557884 0.252993 2.676438 21.454550 0.003104 0.000002 156.560722 10.171793 -179.629850 -57.285869 0.457414 8.061014 70.145804 -2.993847 8.626719 21.454558 -0.003115 -0.000015 6.589430 -1.279920 0.420468 3.157730 -2.570695 0.806642 2.839321 -2.565636 0.822150 -0.113909 8.289843 -8.050414 18.385853 -8.554143 -6.156340 166.276707 -76.558784 12.496121 -17.573319 61.151169 29.066758 -37.618308 -9.488694 1.036528 9.543994 -20.498364 -7.197704 -163.517311 75.324863 18.302441 -16.800001 -59.962149 -27.618606 -40.650571 16.475562 -1.599263 0.205249 12.923969 -10.812470 
182.332901 89.088379 -514.321594 93.470845 2.969718 91.340188 177.705649 4.776403 173.921984 -23.080235 -1.119079 0.682493 83.954486 0.170435 2.842650 21.454551 0.003106 0.000000 154.468266 9.996511 -179.002975 -58.474014 0.458408 7.902706 70.511260 -2.691880 9.273981 21.454558 -0.003098 -0.000016 6.678140 -1.266968 0.307580 3.337815 -2.542177 0.579179 3.019395 -2.538496 0.594536 -0.222938 9.234803 -7.497635 18.263344 -9.858190 -5.377964 165.967504 -76.356283 12.819122 -17.762108 61.254940 29.257173 -37.642860 -9.477119 1.036357 8.567279 -19.606669 -6.730818 -163.131610 75.217328 18.698063 -16.027421 -60.341689 -28.298621 -39.992329 16.191985 -1.563174 -0.115181 14.484017 -10.285762 
182.535599 89.100906 -513.783813 93.160980 2.901875 91.675236 177.942479 4.533297 173.783317 -23.209570 -1.082381 0.977022 84.335918 -0.002975 3.018366 21.454550 0.003101 -0.000002 153.081424 9.445901 -178.408557 -57.335975 0.792926 7.052480 70.869326 -1.981478 9.656175 21.454563 -0.003108 -0.000017 6.757220 -1.190687 0.212123 3.498280 -2.387182 0.388738 3.179905 -2.384659 0.403155 -0.512364 10.314244 -6.929758 18.545241 -11.602341 -4.558548 165.208998 -76.260715 13.596117 -18.077730 61.485657 29.586983 -37.585100 -9.552965 1.039977 6.528564 -20.286557 -4.605788 -162.875778 75.144703 18.960510 -15.020412 -60.700649 -29.259520 -38.891907 15.721094 -1.503783 -0.560096 15.995398 -9.874425 
182.705994 89.094780 -513.149170 92.897799 2.819180 91.979077 178.248061 4.306396 173.613081 -23.304628 -1.051809 1.274051 84.761357 -0.184772 3.169230 21.454551 0.003087 -0.000000 152.145032 8.806902 -178.297895 -54.273800 1.450282 6.512217 70.930620 -1.582229 9.755321 21.454560 -0.003108 -0.000018 6.850900 -1.109423 0.127255 3.687489 -2.222316 0.219605 3.369132 -2.220817 0.233018 -1.131574 11.377482 -6.268187 19.089219 -13.898587 -3.629113 164.083301 -76.212753 14.745501 -18.170323 61.718266 30.056244 -38.118060 -9.742661 1.065429 4.073124 -22.301956 -2.046413 -162.924696 75.100239 18.910881 -13.651036 -60.973625 -30.400492 -37.855739 15.253079 -1.447104 -1.166535 17.214489 -9.455979 
182.852905 89.172783 -512.446228 92.501204 2.705070 92.261581 178.778357 3.986897 173.727760 -22.936410 -1.057835 1.406600 84.992279 -0.265243 3.244022 21.454551 0.003088 -0.000001 151.705400 8.010309 -178.557783 -49.684449 2.162793 6.499474 70.840304 -1.521382 9.973368 21.454558 -0.003116 -0.000018 6.961308 -0.985757 0.051053 3.909766 -1.972708 0.069183 3.591449 -1.972119 0.081103 -1.959046 12.168715 -5.491674 19.414463 -16.305255 -2.593155 163.102978 -76.163433 15.746765 -18.064694 61.749479 30.605825 -39.734537 -10.024342 1.124382 2.084704 -24.566468 -0.442476 -163.249198 75.085185 18.579006 -11.824733 -61.163183 -31.759335 -37.441994 14.989888 -1.419741 -1.791008 18.096926 -8.781821 
182.975204 89.272469 -511.678986 92.156901 2.518610 92.594867 179.429780 3.732700 174.101795 -22.236219 -1.110954 1.421811 85.083673 -0.271647 3.269456 21.454553 0.003096 0.000002 151.615883 7.308307 -179.085006 -43.852710 2.845742 6.776369 70.360777 -1.635177 10.202112 21.454558 -0.003114 -0.000016 7.071060 -0.868353 -0.021718 4.130291 -1.735438 -0.074094 3.812045 -1.735720 -0.063604 -2.722600 12.584326 -4.724728 19.229879 -18.120695 -1.588756 162.719804 -76.181806 16.136532 -18.182343 61.530326 30.983920 -42.236220 -10.377198 1.213520 0.654546 -26.171514 0.850222 -163.440088 75.089857 18.383574 -9.534882 -61.333992 -33.440364 -37.850624 14.952143 -1.427419 -2.310838 18.687309 -8.166001 
183.065598 89.305038 -510.840912 92.040399 2.195509 93.032333 -179.998106 3.662710 174.535485 -21.528217 -1.190594 1.463657 85.220031 -0.297240 3.292924 21.454551 0.003093 0.000002 151.672588 6.988797 -179.846394 -37.440604 3.406180 7.087690 69.567580 -1.488170 11.169653 21.454558 -0.003111 -0.000019 7.147321 -0.804947 -0.088737 4.283648 -1.606147 -0.206950 3.965417 -1.607228 -0.197243 -3.284234 12.773424 -4.168562 18.777495 -19.088535 -0.833977 162.913399 -76.307481 15.933807 -18.911602 61.148020 30.809252 -44.941511 -10.725653 1.312231 -0.696260 -26.757710 2.991541 -163.225607 75.111665 18.602927 -6.920622 -61.549191 -35.437921 -38.750054 14.991671 -1.452693 -2.621827 19.075465 -7.760481 
183.136597 89.381363 -509.971008 91.825371 1.709729 93.517932 -179.484913 3.476893 174.942783 -20.633754 -1.264675 1.557545 85.312491 -0.358438 3.314570 21.454555 0.003093 -0.000001 151.863232 6.699091 179.405833 -30.666624 3.815406 7.235187 69.317903 -1.407280 11.682333 21.454562 -0.003108 -0.000018 7.170100 -0.732258 -0.129937 4.329537 -1.459243 -0.286955 4.011329 -1.460820 -0.278125 -3.681875 12.893556 -3.904261 18.479517 -19.460845 -0.439624 163.390515 -76.414770 15.443094 -20.295566 60.641794 29.890725 -47.282978 -10.968331 1.397411 -2.034871 -26.397563 5.734072 -162.639017 75.142866 19.202851 -4.448334 -61.807208 -37.463075 -39.552884 14.940050 -1.470043 -2.449111 19.430104 -6.693656 
183.192596 89.435852 -509.024902 91.616756 1.145248 93.968322 -179.026321 3.281904 175.218900 -19.793750 -1.301086 1.704330 85.481245 -0.463017 3.316399 21.454551 0.003105 -0.000000 151.874078 6.473693 178.710984 -24.450026 4.114426 7.356178 68.588589 -1.453483 11.644517 21.454557 -0.003105 -0.000016 7.160004 -0.661772 -0.152418 4.309321 -1.317496 -0.329173 3.991148 -1.319338 -0.321197 -4.013249 12.978865 -3.856479 18.449352 -19.572127 -0.326585 163.893312 -76.395447 14.931552 -22.077490 60.037520 28.430493 -49.069199 -11.123276 1.462584 -3.003653 -25.480314 8.272788 -161.983018 75.169606 19.873682 -2.570612 -62.053136 -39.105654 -39.873613 14.752823 -1.466226 -1.577374 19.743618 -4.182918 
183.227402 89.421951 -507.966003 91.488000 0.612854 94.306143 -178.547360 3.159193 175.401034 -19.145884 -1.290019 1.831831 85.785899 -0.570732 3.259430 21.454551 0.003081 -0.000001 151.863314 6.468307 178.181467 -19.209501 4.512197 7.234256 67.938102 -1.449741 11.275092 21.454560 -0.003109 -0.000018 7.152688 -0.598204 -0.167437 4.294622 -1.189882 -0.356764 3.976458 -1.191892 -0.349566 -4.351300 12.957211 -3.897103 18.496793 -19.586430 -0.338140 164.355224 -76.286793 14.465302 -24.063506 59.450697 26.660658 -50.329396 -11.299841 1.514157 -3.441766 -24.481085 10.511013 -161.414104 75.197152 20.455413 -1.603460 -62.266142 -39.895494 -39.692145 14.521074 -1.446352 -0.228643 19.564887 -0.999807 
183.232407 89.294373 -506.751587 91.527308 0.165755 94.517455 -178.015644 3.180692 175.529346 -18.810187 -1.248213 1.914223 86.271675 -0.664651 3.137183 21.454553 0.003085 -0.000001 151.533375 6.568699 177.901197 -15.694062 4.740389 7.022589 67.806785 -1.294204 11.270729 21.454557 -0.003098 -0.000016 7.169282 -0.557356 -0.189340 4.327859 -1.107361 -0.399198 4.009699 -1.109609 -0.392511 -4.720701 12.895429 -3.944348 18.428393 -19.680594 -0.337661 164.584090 -76.195794 14.235730 -26.068394 58.997084 24.729286 -51.179096 -11.537877 1.557416 -3.476117 -23.779457 12.570443 -161.095203 75.209644 20.781487 -1.581731 -62.384960 -39.667792 -39.190082 14.388405 -1.424688 1.049997 18.453414 1.324831 
183.192993 89.095490 -505.379700 91.605930 -0.194813 94.575744 -177.370314 3.203092 175.576078 -18.648276 -1.198668 1.959142 86.848663 -0.742697 2.967546 21.454551 0.003103 0.000001 151.068471 6.537912 177.854123 -13.704976 4.778360 7.088380 68.245269 -1.253698 11.665762 21.454558 -0.003105 -0.000018 7.208197 -0.515488 -0.213734 4.405723 -1.022618 -0.446738 4.087578 -1.025152 -0.440555 -5.136151 12.859622 -3.951477 18.258938 -19.937978 -0.262686 164.380305 -76.125723 14.446323 -27.860634 58.653464 22.840685 -51.721614 -11.763276 1.590177 -3.307469 -23.672852 14.150637 -161.152098 75.198463 20.723412 -2.377988 -62.308127 -38.670202 -38.555451 14.409983 -1.409882 1.827008 16.663792 2.154889 
183.095901 88.825851 -503.829498 91.658652 -0.471693 94.501056 -176.532222 3.135301 175.469322 -18.526437 -1.162245 2.025914 87.561290 -0.842740 2.761063 21.454550 0.003089 -0.000000 150.555456 6.348402 177.782680 -13.151791 4.753777 7.140468 68.951607 -1.371906 11.642817 21.454555 -0.003096 -0.000016 7.260570 -0.465150 -0.240703 4.510437 -0.920701 -0.499195 4.192305 -0.923563 -0.493631 -5.600590 12.932811 -3.911412 18.118972 -20.353344 -0.109851 163.639694 -76.060153 15.204073 -29.242403 58.350272 21.302013 -51.993268 -11.936352 1.610679 -3.061607 -24.247059 14.898413 -161.515519 75.147715 20.352244 -3.711186 -61.969132 -37.390771 -37.947793 14.506967 -1.400911 1.948176 14.973361 1.713787 
182.943695 88.503670 -502.078888 91.714134 -0.687603 94.401028 -175.536695 2.992297 175.198355 -18.471944 -1.136764 2.160852 88.224775 -0.995696 2.489084 21.454551 0.003075 -0.000003 150.137325 6.068298 177.602404 -13.842497 4.767090 7.072778 69.983402 -1.661400 10.930413 21.454560 -0.003104 -0.000015 7.315868 -0.411200 -0.284998 4.621069 -0.810814 -0.586072 4.302963 -0.814219 -0.581148 -6.135147 13.100926 -3.846637 18.099293 -20.830451 0.078924 162.482127 -75.989290 16.387111 -30.193186 58.062885 20.241441 -51.927924 -12.065191 1.617149 -2.765470 -25.123169 14.918339 -161.834420 75.054271 20.027067 -5.242384 -61.417594 -36.203069 -37.526712 14.618309 -1.397697 1.501645 13.889928 0.358160 
182.736603 88.135857 -500.104706 91.832269 -0.866140 94.463545 -174.542438 2.812306 174.848745 -18.747126 -1.075944 2.436518 88.720585 -1.248329 2.157842 21.454553 0.003098 -0.000000 149.723279 5.809294 177.706346 -15.896053 4.647731 6.562805 70.786749 -1.665352 9.990584 21.454557 -0.003100 -0.000016 7.366197 -0.359032 -0.374330 4.721970 -0.702659 -0.762906 4.403883 -0.707126 -0.758632 -6.756319 13.302927 -3.794993 18.177813 -21.278505 0.255144 161.200811 -75.926685 17.695970 -30.846343 57.803406 19.602651 -51.390490 -12.162324 1.606053 -2.474557 -25.697953 14.728292 -161.793302 74.946614 20.070415 -6.637314 -60.800753 -35.272893 -37.420568 14.756612 -1.404065 0.850715 13.443574 -1.357674 
182.455505 87.869621 -497.982788 91.639876 -1.036003 94.697854 -173.625854 2.268002 174.528340 -19.235563 -0.902819 2.779733 88.929500 -1.561904 1.728924 21.454553 0.003085 0.000001 149.636317 5.295000 178.591429 -18.438787 4.456200 5.585730 70.658368 -1.425638 8.463768 21.454558 -0.003117 -0.000021 7.398941 -0.235282 -0.474262 4.786978 -0.450964 -0.957758 4.468912 -0.456601 -0.955016 -7.385408 13.514028 -3.785595 18.253447 -21.675431 0.393352 159.652516 -75.848697 19.277353 -31.273671 57.588057 19.356614 -50.242530 -12.237220 1.573990 -2.412698 -25.736385 14.929438 -161.475289 74.798774 20.397687 -7.681075 -60.206082 -34.553391 -37.566440 14.909949 -1.417617 0.417947 13.540933 -2.623416 
182.073700 87.741943 -495.681305 91.090504 -1.168306 94.952812 -172.843743 1.361801 174.086414 -20.083210 -0.478727 3.164086 88.584138 -1.925885 1.175636 21.454548 0.003081 -0.000001 149.967417 4.332305 -179.973244 -19.891369 4.146743 4.711965 68.449560 -1.514374 5.879739 21.454560 -0.003107 -0.000017 7.418195 -0.032449 -0.537495 4.823769 -0.042701 -1.075854 4.505727 -0.049060 -1.075568 -7.972304 13.659175 -3.820081 18.347375 -21.958471 0.461370 157.962386 -75.735064 21.004997 -31.594256 57.443790 19.504333 -48.349994 -12.291061 1.518036 -2.710045 -25.406125 15.746668 -161.060177 74.576677 20.825628 -8.379514 -59.651655 -33.929859 -37.628540 15.008840 -1.425584 0.336796 14.141863 -3.118116 
181.595596 87.768700 -493.203796 90.277035 -1.216138 94.911072 -172.317681 0.194303 173.338849 -21.577561 0.218470 3.601311 87.348981 -2.443435 0.047209 21.454553 0.003094 -0.000000 150.716621 2.841007 -178.816921 -20.580437 3.559476 4.237197 65.043017 -1.659074 4.128486 21.454557 -0.003091 -0.000016 7.436285 0.228181 -0.525213 4.857604 0.477972 -1.040459 4.539541 0.471825 -1.043332 -8.466918 13.653363 -3.811310 18.540969 -22.133247 0.499814 156.514673 -75.615447 22.485767 -31.783947 57.490679 19.855512 -45.730743 -12.279053 1.438209 -3.040379 -24.653964 16.827525 -161.011014 74.355331 20.878785 -8.969170 -59.145750 -33.254091 -37.191060 14.999640 -1.414201 0.506290 14.903355 -3.139133 
181.078506 87.760902 -490.550598 89.491577 -1.126767 94.534244 -172.097736 -0.901204 172.335276 -24.042783 1.143101 3.983127 85.351888 -2.936041 -0.916535 21.454557 0.003105 0.000002 151.318675 1.392601 -178.442175 -22.381801 3.389655 4.174227 64.780219 -2.063745 2.923161 21.454560 -0.003107 -0.000017 7.473024 0.492170 -0.492818 4.929175 1.004674 -0.964414 4.611076 0.998966 -0.970457 -8.830182 13.490057 -3.646795 18.840937 -22.327243 0.612636 155.372720 -75.598364 23.649803 -31.510617 57.950959 20.006232 -42.667594 -12.155397 1.342812 -2.807541 -23.051890 17.590770 -161.587085 74.319445 20.289178 -9.761177 -58.759551 -32.434632 -36.095490 14.876570 -1.379794 0.856275 15.197728 -3.140011 
180.560104 87.867989 -487.860291 88.451756 -0.944620 94.049335 -172.160669 -2.200308 171.473470 -26.966791 2.276273 4.315851 81.861122 -3.630062 -2.480603 21.454545 0.003089 -0.000001 152.126126 -0.146307 -178.399186 -24.305472 3.637598 4.224938 66.802262 -2.402296 2.204180 21.454558 -0.003108 -0.000019 7.522856 0.807277 -0.495323 5.026567 1.635077 -0.955463 4.708369 1.629421 -0.965316 -9.019360 13.314520 -3.334351 19.165793 -22.722825 0.843937 153.595108 -75.765069 25.450376 -30.303879 58.991442 19.770628 -39.589750 -11.950926 1.247620 -1.641734 -20.450527 17.462975 -162.347695 74.477585 19.508212 -11.105345 -58.539161 -31.325146 -34.575418 14.633055 -1.328755 1.440457 14.609763 -3.448933 
180.033493 88.072807 -485.158203 87.369888 -0.744679 93.843657 -173.137837 -3.729195 170.942669 -31.198685 3.400920 4.593814 76.578660 -4.561962 -4.305166 21.454553 0.003094 0.000001 153.587254 -1.596097 -178.261175 -25.143967 3.970071 4.287926 68.673106 -2.690685 1.567062 21.454560 -0.003109 -0.000017 7.564833 1.122822 -0.589916 5.106593 2.270353 -1.130271 4.788295 2.263620 -1.143965 -8.954223 13.306024 -3.003539 19.425394 -23.417297 1.123823 150.426830 -76.197618 28.647850 -28.206504 60.548616 19.456175 -36.713196 -11.646000 1.156830 0.182552 -17.612643 16.144370 -162.635820 74.582777 19.211913 -12.962475 -58.293417 -30.016909 -33.077797 14.245896 -1.270606 2.214619 13.248317 -4.244642 
179.477798 88.208328 -482.555206 86.252080 -0.593851 94.020853 -175.904091 -5.638706 170.843549 -38.095715 4.356510 4.684738 70.658047 -5.394629 -5.532983 21.454553 0.003091 0.000002 155.121628 -2.999597 -178.024455 -25.651658 4.260723 4.473330 70.514245 -3.001125 1.059161 21.454560 -0.003112 -0.000020 7.582750 1.436792 -0.737561 5.136402 2.904609 -1.411479 4.817977 2.896180 -1.429007 -8.566121 13.363274 -2.778065 19.564966 -24.233646 1.305336 146.388849 -76.982973 32.699650 -26.013349 62.339621 19.513483 -34.055607 -11.137722 1.063159 1.742504 -15.702806 14.051977 -162.097410 74.491682 19.764366 -14.994499 -57.841723 -28.797546 -31.987302 13.824860 -1.220339 2.936568 11.487378 -5.451147 
178.921097 88.250031 -480.027893 84.998938 -0.393150 94.461694 179.875928 -7.833408 171.253251 -47.205589 5.327347 4.326004 64.653560 -6.179049 -7.035111 21.454551 0.003080 0.000007 156.702763 -4.514891 -177.933613 -25.996868 4.593477 4.878158 72.298905 -3.403149 0.697209 21.454558 -0.003117 -0.000019 7.593996 1.783364 -0.865897 5.151690 3.603160 -1.652837 4.833045 3.593243 -1.674575 -7.921834 13.141016 -2.659843 19.554760 -24.799604 1.308930 142.630387 -78.120514 36.433359 -24.311710 64.071915 20.259914 -31.883272 -10.472384 0.973966 2.259464 -15.278616 12.485269 -161.264619 74.295690 20.619790 -16.635406 -57.134536 -28.058026 -31.601875 13.587972 -1.197102 3.306129 9.873026 -6.790688 
178.421494 88.252434 -477.461090 83.846965 -0.008826 94.875412 175.098497 -9.797303 172.152951 -56.294149 6.112306 3.332939 57.959421 -6.908114 -8.876805 21.454553 0.003090 0.000001 158.577062 -6.001407 -178.106444 -26.130422 4.952762 5.370596 74.084193 -3.844054 0.362617 21.454555 -0.003109 -0.000018 7.639042 2.114486 -0.912049 5.236612 4.267740 -1.729225 4.917711 4.257354 -1.754996 -7.213671 12.453615 -2.598110 19.387895 -24.865862 1.164543 139.992582 -79.355856 39.015926 -22.763118 65.394868 21.960134 -30.799526 -9.985100 0.920572 1.786603 -15.819924 12.450836 -160.873590 74.116842 21.022846 -17.585640 -56.240095 -27.866315 -32.045745 13.676114 -1.211957 3.247347 8.982354 -7.812282 
178.023697 88.247383 -474.830292 82.977250 0.575262 94.998717 170.790642 -11.230504 173.328754 -63.889630 6.477501 2.509899 54.169612 -7.415512 -10.233242 21.454545 0.003092 -0.000002 160.744144 -7.289708 -178.358533 -26.200904 5.248477 5.688317 75.733138 -4.171616 -0.068400 21.454553 -0.003098 -0.000016 7.734209 2.369646 -0.836026 5.427657 4.775573 -1.561895 5.108480 4.766180 -1.590756 -6.520319 11.497804 -2.567111 19.083955 -24.511235 0.955876 139.549289 -80.378001 39.391644 -20.742598 65.994579 24.581849 -31.106635 -9.947095 0.924092 0.871917 -16.371116 13.707565 -161.182383 73.913630 20.708997 -17.964280 -55.234483 -27.963257 -33.126079 14.004192 -1.256038 2.895478 9.171632 -8.166969 
177.729095 88.321907 -472.070892 82.628446 1.213298 94.659257 166.740354 -11.603189 174.268056 -69.445422 6.402755 2.454050 54.607878 -6.287996 -8.185560 21.454543 0.003094 -0.000001 163.282748 -8.158993 -178.610690 -26.024149 5.326412 5.627960 77.275797 -4.224162 -0.519568 21.454555 -0.003103 -0.000017 7.839233 2.471557 -0.635875 5.645897 4.970927 -1.152001 5.326565 4.964019 -1.182066 -5.732700 10.630026 -2.563371 18.736693 -23.983513 0.742873 142.682638 -81.115422 36.178491 -18.200572 65.887222 27.412413 -32.445390 -10.243744 0.970500 -0.090373 -16.491939 15.325421 -161.846605 73.672989 20.031010 -18.040770 -54.347569 -28.019333 -34.417634 14.427521 -1.311905 2.456335 10.210285 -7.975975 
177.558395 88.450043 -469.222290 82.762871 1.747003 93.980111 163.247696 -11.412392 174.868580 -72.403775 6.029664 3.056932 58.306347 -6.155694 -7.686681 21.454565 0.003095 0.000002 165.938012 -8.471001 -178.846837 -25.747698 5.324807 5.240432 78.745442 -4.064785 -1.066188 21.454558 -0.003102 -0.000016 7.902601 2.425821 -0.356930 5.784932 4.866285 -0.593195 5.465603 4.862735 -0.622622 -4.779301 10.004609 -2.597131 18.470411 -23.378124 0.517456 149.069002 -81.635807 29.698626 -15.401829 65.498618 29.603000 -34.221502 -10.617993 1.032774 -0.905387 -16.406270 16.576729 -162.227484 73.586471 19.641358 -17.970180 -53.956179 -27.777353 -35.659007 14.915231 -1.372000 2.115539 11.383484 -7.743374 
177.459900 88.481110 -466.352814 82.936528 2.124047 93.272018 159.880836 -11.007590 175.383221 -73.021429 5.556386 3.553739 60.044309 -6.271919 -7.494937 21.454543 0.003080 0.000007 168.330996 -8.571696 -178.827767 -25.769672 5.303498 4.663832 80.315040 -3.767275 -1.632013 21.454560 -0.003106 -0.000019 7.907521 2.339007 -0.054481 5.807189 4.677715 0.008019 5.487937 4.677815 -0.020286 -3.782984 9.582156 -2.707159 18.336531 -22.660795 0.230403 156.249429 -82.020607 22.424990 -12.374408 65.271426 31.053527 -36.051316 -10.993931 1.098625 -1.403429 -16.378018 17.030793 -162.012811 73.786657 19.859217 -17.734354 -54.184492 -27.204922 -36.964543 15.463895 -1.438769 1.922571 12.160806 -7.834068 
177.366699 88.455673 -463.444214 83.179335 2.366970 92.667478 156.646495 -10.299395 175.734415 -71.564666 4.978358 3.922759 62.166107 -5.354973 -5.231825 21.454543 0.003087 -0.000003 170.545889 -8.492701 -178.560160 -25.959672 5.246153 3.991431 81.934915 -3.388717 -2.180416 21.454560 -0.003113 -0.000017 7.871643 2.222975 0.237923 5.746035 4.431427 0.585859 5.426921 4.435001 0.559044 -2.953431 9.202789 -2.915429 18.255964 -21.826180 -0.140148 162.385015 -82.318751 16.211611 -9.336547 65.323424 31.994720 -37.662011 -11.392729 1.162958 -1.510222 -16.409321 16.562691 -161.400594 74.185027 20.481878 -17.327312 -54.755574 -26.529206 -38.564208 15.979409 -1.512177 1.807618 12.502783 -8.121089 
177.282196 88.477043 -460.515808 83.651150 2.490193 92.152393 153.879381 -9.476816 175.913298 -67.947801 4.233111 4.239570 66.823750 -4.889432 -4.261048 21.454553 0.003090 -0.000002 172.774785 -8.146502 -178.373259 -25.909706 5.176466 3.412214 83.372868 -3.048394 -2.627470 21.454555 -0.003111 -0.000017 7.821213 2.059770 0.510206 5.653196 4.092212 1.120647 5.334291 4.099046 1.095881 -2.409962 8.771994 -3.191530 18.109876 -21.001163 -0.546833 167.617091 -82.452336 10.918411 -6.816501 65.485272 32.371443 -38.752659 -11.798472 1.216442 -1.513077 -16.323934 15.669108 -161.001670 74.594087 20.885206 -16.850866 -55.215946 -26.081407 -40.439730 16.391815 -1.588129 1.632738 12.585399 -8.335658 
177.205399 88.558662 -457.616211 84.177990 2.495794 91.716456 151.789056 -8.674503 175.734484 -62.115981 3.521839 4.237161 70.305015 -4.637908 -4.170714 21.454551 0.003094 0.000002 175.043323 -7.758413 -178.476750 -25.407721 5.117279 3.092805 84.329190 -2.858626 -2.898813 21.454562 -0.003108 -0.000017 7.774038 1.891150 0.766996 5.564745 3.743395 1.624433 5.246046 3.753266 1.601779 -2.246665 8.315286 -3.460564 17.914131 -20.307402 -0.905274 172.295961 -82.370510 6.190499 -5.187460 65.681879 31.998050 -39.177053 -12.194767 1.253123 -1.624073 -16.172652 15.047627 -161.325312 74.979112 20.549007 -16.411104 -55.368471 -26.002501 -42.352774 16.719022 -1.662053 1.215007 12.643047 -8.566492 
177.128098 88.609779 -454.750397 84.561273 2.350485 91.371457 150.350359 -7.871200 174.764815 -54.119738 3.269141 4.026824 72.280613 -3.926474 -2.867633 21.454557 0.003099 0.000000 177.297395 -7.517197 -178.802126 -24.494535 5.085428 2.989215 84.977157 -2.790883 -3.003073 21.454560 -0.003107 -0.000018 7.719305 1.754595 1.012129 5.460092 3.459706 2.106437 5.141604 3.472496 2.085498 -2.450784 8.035170 -3.655113 17.714171 -19.859076 -1.118613 176.004385 -82.203212 2.443637 -4.300627 65.956815 31.176982 -39.063874 -12.525680 1.271949 -1.702108 -16.328993 14.785058 -162.424111 75.388507 19.419992 -15.988812 -55.321855 -26.265766 -44.048109 16.992358 -1.728568 0.437776 12.998130 -9.115777 
177.062302 88.654022 -451.928314 84.869984 2.014756 91.137987 149.509194 -7.140695 172.878044 -44.633377 3.541568 4.146731 72.746023 -4.008295 -2.962344 21.454551 0.003080 -0.000004 179.552942 -7.325897 -179.238412 -23.073719 5.077240 3.011805 85.315094 -2.790451 -2.962075 21.454560 -0.003109 -0.000018 7.634356 1.634745 1.233402 5.293599 3.211656 2.540875 4.975286 3.227074 2.521428 -2.861110 7.998356 -3.741198 17.531292 -19.639352 -1.157559 178.755572 -82.071423 -0.337625 -3.875477 66.251640 30.498106 -38.620311 -12.686228 1.271296 -1.616587 -16.992886 14.539992 -163.812293 75.851129 17.996196 -15.639726 -55.274750 -26.742890 -45.359310 17.189447 -1.780378 -0.534444 13.814316 -10.002594 
176.990997 88.650497 -449.101410 85.091268 1.545125 91.040329 149.267555 -6.375108 170.549250 -34.171443 3.633948 4.466363 71.976732 -4.052445 -2.384793 21.454551 0.003100 -0.000000 -178.180251 -7.191499 -179.726087 -21.314847 5.126647 3.120700 85.412991 -2.844691 -2.859901 21.454558 -0.003117 -0.000017 7.506662 1.535864 1.410199 5.040138 3.009251 2.886487 4.722009 3.026756 2.868282 -3.263422 8.087759 -3.737056 17.395498 -19.534951 -1.087025 -178.917393 -81.961191 -2.691271 -3.512516 66.386215 30.508293 -38.004269 -12.601787 1.250483 -1.621397 -17.823987 14.343406 -164.895206 76.351249 16.885821 -15.440394 -55.343244 -27.355189 -46.189919 17.277443 -1.811353 -1.325793 14.858878 -10.983215 
176.927704 88.666656 -446.292389 85.449000 1.015554 91.016724 149.408967 -5.347588 168.879473 -23.663064 2.934784 4.401356 69.939600 -3.893543 -1.975062 21.454553 0.003089 0.000001 -175.729935 -6.876309 179.622883 -19.002020 5.266927 3.328146 85.220865 -2.982117 -2.791034 21.454558 -0.003105 -0.000019 7.353907 1.412551 1.529554 4.733943 2.761805 3.116055 4.415946 2.780699 3.099334 -3.555276 8.102959 -3.695297 17.379437 -19.379145 -1.025712 -176.508686 -81.793018 -5.127876 -3.070256 66.270853 31.180336 -37.345541 -12.338935 1.217255 -2.027373 -18.283373 14.652272 -165.616187 76.877973 16.146443 -15.469750 -55.566222 -27.924270 -46.472921 17.248608 -1.818117 -1.768882 15.746846 -11.885540 
176.884796 88.549698 -443.415009 85.637424 0.513456 90.956748 149.783576 -4.481592 169.055214 -14.724652 1.522904 4.012124 68.835794 -3.750079 -2.389133 21.454551 0.003095 -0.000000 -173.356430 -6.639692 179.021485 -16.963601 5.455355 3.446552 84.931606 -3.067473 -2.748282 21.454557 -0.003103 -0.000018 7.191446 1.315878 1.624577 4.408171 2.569476 3.298461 4.090290 2.589466 3.282906 -3.795746 7.969010 -3.673422 17.539224 -19.087488 -1.054182 -174.110155 -81.523908 -7.554904 -2.461579 65.893936 32.380674 -36.690253 -12.015992 1.180475 -2.772255 -18.223163 15.508301 -166.296801 77.396596 15.449411 -15.549108 -55.942582 -28.411193 -46.159682 17.125371 -1.800381 -2.007489 16.338869 -12.604139 
176.884598 88.099380 -440.282806 85.329772 0.119475 90.706306 149.545844 -4.340289 171.155484 -9.684535 0.272160 3.448222 69.435655 -3.987838 -4.380720 21.454551 0.003093 0.000001 -171.315474 -6.761301 178.707378 -16.200900 5.617359 3.216234 84.913813 -2.904690 -2.696630 21.454557 -0.003110 -0.000021 7.028507 1.293911 1.756850 4.084428 2.525630 3.558653 3.766658 2.547199 3.543366 -4.052359 7.743295 -3.712446 17.858508 -18.634344 -1.193080 -172.114907 -81.218661 -9.575067 -1.746539 65.303247 33.926164 -35.995438 -11.668098 1.141460 -3.497343 -17.768175 16.496573 -167.113897 77.804160 14.614875 -15.397832 -56.430132 -28.959739 -45.271942 16.949589 -1.761952 -2.093152 16.691722 -12.884607 
176.961105 87.590042 -437.016907 85.320619 -0.222866 90.359045 149.065955 -3.667199 173.889731 -9.230844 0.122688 2.742578 69.367497 -3.414754 -4.227209 21.454553 0.003092 -0.000003 -169.396095 -6.504585 178.460685 -15.961572 5.744584 2.895545 84.924626 -2.659396 -2.550997 21.454562 -0.003103 -0.000018 6.865395 1.191458 1.891082 3.757464 2.321626 3.820166 3.439855 2.344782 3.806094 -4.320077 7.479062 -3.786943 18.295801 -18.084085 -1.394837 -170.535740 -80.902013 -11.175258 -1.143589 64.572533 35.542204 -35.231051 -11.286901 1.099028 -4.071680 -17.128998 17.366970 -168.116555 78.113677 13.592498 -14.875158 -57.124738 -29.545397 -43.890659 16.748092 -1.707925 -1.887303 16.645436 -12.622009 
177.173798 87.167130 -433.602203 85.976393 -0.452605 89.855237 148.596202 -2.252702 176.008716 -12.226722 0.602203 2.410482 66.617362 -2.408542 -1.837343 21.454553 0.003099 0.000003 -167.429233 -5.530697 178.117878 -15.937273 5.730200 2.620967 84.640558 -2.403505 -2.179820 21.454563 -0.003104 -0.000017 6.711628 0.932103 2.016680 3.442859 1.804643 4.060302 3.125460 1.829233 4.049356 -4.429258 7.245862 -3.832307 18.798948 -17.544364 -1.579117 -169.065077 -80.495166 -12.666910 -0.595223 63.661625 37.140547 -34.389593 -10.884470 1.053917 -4.641625 -16.495236 18.301383 -169.929916 78.357542 11.745746 -13.725765 -58.069230 -30.227866 -42.117340 16.536006 -1.643476 -1.342152 15.941977 -12.036865 
177.516800 86.885658 -429.997894 87.261110 -0.495191 89.363231 148.378975 -0.403396 176.776197 -15.675479 1.354458 1.965392 62.121390 -1.584230 -0.380995 21.454551 0.003090 -0.000001 -165.585082 -3.984888 178.004073 -16.460134 5.395175 2.370901 83.496597 -2.089754 -1.417302 21.454557 -0.003122 -0.000017 6.586935 0.513048 2.094429 3.178960 0.969276 4.202088 2.861743 0.994751 4.196178 -4.350895 7.143148 -3.849186 19.418663 -16.997595 -1.734409 -167.381695 -79.918568 -14.376911 -0.296791 62.520697 38.370630 -33.334284 -10.521960 1.007347 -5.153199 -15.921026 19.244029 -172.701729 78.486810 8.924206 -11.938801 -59.284765 -30.890702 -39.972265 16.278489 -1.568282 -0.650141 14.727365 -11.514720 
177.878601 86.802269 -426.248199 88.659236 -0.326012 89.329961 148.675364 1.145598 176.099270 -19.039289 1.652588 2.109726 59.625543 -1.516369 0.078734 21.454557 0.003091 0.000001 -164.473346 -2.590899 178.716326 -18.555754 4.648648 2.037064 80.553701 -1.680574 -0.523158 21.454563 -0.003106 -0.000018 6.523920 0.036246 2.088297 3.035381 0.018638 4.176810 2.718197 0.043984 4.176616 -4.322657 7.323093 -3.975086 20.195275 -16.307961 -1.954287 -166.129298 -79.385718 -15.651700 -0.674063 61.395334 38.603430 -31.871152 -10.235473 0.958229 -5.245583 -15.377331 19.673101 -175.175979 78.492869 6.405558 -9.689980 -60.843632 -31.392188 -37.587036 15.949559 -1.485603 0.131986 13.662729 -11.180082 
178.225693 86.874367 -422.692993 90.311445 -0.089861 89.692425 149.500027 2.755198 174.420902 -22.013983 1.804253 2.549010 60.244768 -1.620829 0.589990 21.454550 0.003095 -0.000001 -164.220724 -1.122300 -179.897320 -21.990422 3.519941 1.529344 76.397346 -0.775736 1.498285 21.454558 -0.003115 -0.000014 6.548288 -0.492627 2.044755 3.065425 -1.038326 4.076126 2.748152 -1.013577 4.082308 -4.533056 7.702024 -4.297412 20.966107 -15.411082 -2.300299 -166.174322 -79.139688 -15.606996 -1.933949 60.631849 37.573639 -30.064898 -9.992760 0.906970 -4.704449 -15.015684 19.182465 -176.517100 78.721632 5.043151 -6.911997 -62.775558 -32.084155 -35.413213 15.579156 -1.409184 1.157702 13.257196 -10.778498 
178.577896 87.228027 -419.388885 91.718608 0.154564 89.953537 151.065821 4.073506 172.953381 -23.632769 1.817692 3.097131 62.212887 -1.939059 0.813634 21.454557 0.003102 0.000003 -165.864819 0.512102 -178.355692 -28.196860 2.473620 0.625508 70.726677 1.090204 4.823979 21.454555 -0.003109 -0.000015 6.639895 -0.918756 2.048687 3.233768 -1.893499 4.071874 2.916368 -1.868771 4.083213 -4.815698 8.016110 -4.679447 21.500865 -14.560292 -2.667803 -167.115591 -79.072397 -14.649957 -3.942798 60.307415 35.736923 -28.359908 -9.754629 0.860152 -3.779781 -15.173957 17.870307 -177.773814 79.520559 3.775315 -3.431535 -64.746403 -33.954650 -34.010681 15.190879 -1.352068 2.325548 13.209062 -10.010881 
178.946503 87.738937 -416.345215 92.921951 0.347413 89.765276 153.176063 5.287801 172.488600 -23.901724 1.515972 3.068070 64.067038 -1.378692 2.154386 21.454553 0.003088 -0.000001 -169.491322 2.289007 -177.023122 -37.090212 1.425621 -0.164385 64.690484 2.809016 6.843313 21.454558 -0.003109 -0.000015 6.748457 -1.237210 2.080391 3.439274 -2.534803 4.124599 3.121751 -2.509740 4.139818 -4.885782 8.165592 -4.888626 21.810391 -14.115383 -2.877868 -167.612747 -78.961263 -14.144598 -6.220868 60.178727 33.973627 -27.315948 -9.555033 0.829008 -2.821129 -15.844838 16.209424 179.771631 80.694157 1.301460 0.264718 -66.035758 -37.523092 -33.689447 14.804218 -1.319988 3.074993 12.578898 -9.251301 
179.270996 88.197258 -413.488586 94.051773 0.461113 89.369590 155.378703 6.420589 172.833893 -23.594048 1.061315 2.551525 65.690062 -0.961347 2.304160 21.454551 0.003090 0.000000 -174.654672 4.245188 -175.913175 -47.101736 0.305539 0.103214 57.611245 4.670973 10.026558 21.454562 -0.003105 -0.000013 6.841342 -1.505432 2.036619 3.617132 -3.072945 4.027234 3.299409 -3.048463 4.045703 -4.707152 8.316565 -4.858126 22.013222 -14.146117 -2.855253 -167.558515 -78.917078 -14.199843 -8.216839 60.093077 32.792568 -27.260380 -9.485882 0.823543 -2.055199 -16.606650 14.721663 176.922786 81.645247 -1.567161 3.030979 -66.188085 -41.741431 -34.501796 14.569296 -1.322965 2.881404 10.749838 -9.654092 
179.509995 88.532066 -410.735992 95.125923 0.561133 89.130984 157.529516 7.408809 173.306406 -23.227211 0.380135 2.109784 67.278347 -0.617515 2.408914 21.454555 0.003088 -0.000000 179.903604 6.272708 -174.841764 -56.328724 -0.768978 1.369300 51.878634 6.325376 13.660317 21.454557 -0.003111 -0.000016 6.935864 -1.750215 1.867992 3.803520 -3.560132 3.679885 3.485487 -3.537727 3.701299 -4.455001 8.634746 -4.692732 22.017813 -14.476929 -2.646776 -168.246192 -79.147740 -13.499881 -9.804293 60.017883 32.036855 -28.147524 -9.581505 0.845086 -1.625750 -17.029296 13.752002 176.516363 82.064272 -1.969414 4.251152 -65.445349 -44.902855 -36.317079 14.683454 -1.372559 1.938768 7.948943 -11.989748 
179.698898 88.696571 -408.061615 96.161516 0.747654 89.169294 159.623980 8.389698 173.596908 -23.021969 -0.260265 1.934948 68.851913 -0.360147 2.827985 21.454551 0.003089 -0.000001 174.506525 8.211204 -173.763960 -63.933187 -1.653945 2.450108 50.296355 6.520853 15.012616 21.454553 -0.003102 -0.000019 7.069554 -1.961797 1.600913 4.074282 -3.978137 3.134346 3.755871 -3.959005 3.158324 -4.180066 9.015368 -4.478448 21.607177 -14.901086 -2.326826 -170.590108 -79.504556 -11.116912 -11.395402 59.796339 31.295425 -29.614058 -9.797714 0.885745 -1.592150 -16.969398 13.378832 179.564512 82.066717 1.115583 4.344792 -64.384969 -46.151301 -38.724280 15.103131 -1.459292 0.976696 5.098345 -15.417123 
179.831894 88.810966 -405.332306 96.894150 1.048624 89.539272 161.888515 9.178504 173.896944 -22.839072 -0.714013 2.019162 70.453429 -0.285508 3.302815 21.454550 0.003088 -0.000001 169.454739 9.873204 -172.871883 -69.144641 -2.063257 1.861360 54.777410 5.579246 13.626201 21.454558 -0.003109 -0.000017 7.229315 -2.070179 1.272853 4.403563 -4.186849 2.468349 4.084880 -4.171744 2.493609 -3.757927 9.294305 -4.240653 20.807703 -15.327144 -1.963740 -174.030693 -79.691505 -7.621298 -13.417195 59.318274 30.335418 -31.154484 -10.096429 0.934814 -1.884414 -16.594351 13.579188 -175.581610 81.829635 6.026313 4.066338 -63.510275 -45.741791 -41.095466 15.603157 -1.554350 0.427530 3.300153 -18.114560 
179.869904 88.925537 -402.498810 97.226548 1.369648 90.171966 164.219864 9.571505 174.217594 -22.801583 -1.026683 2.335704 72.162267 -0.389159 3.794570 21.454555 0.003092 -0.000001 164.921256 10.977098 -172.496632 -71.713298 -1.942575 1.690462 59.077086 4.492393 12.317700 21.454555 -0.003104 -0.000018 7.367439 -2.065934 0.924253 4.692946 -4.167354 1.765773 4.374117 -4.156480 1.790940 -3.079662 9.486647 -4.005623 19.933166 -15.739216 -1.628379 -177.120684 -79.752950 -4.482436 -16.056649 58.767234 28.981486 -32.379096 -10.399208 0.979309 -2.313676 -16.255442 14.256836 -170.781490 81.459117 10.886396 3.954731 -63.069530 -44.434892 -42.885450 16.052116 -1.633395 0.129235 3.260758 -18.850188 
179.828201 88.855370 -399.681213 97.569286 1.590933 90.844303 165.994907 9.873304 174.263384 -23.670936 -1.171891 2.791687 74.284325 -0.634501 4.245070 21.454551 0.003102 -0.000000 160.842622 11.757894 -173.227859 -71.740851 -1.207416 1.430947 64.355422 3.644729 11.433800 21.454558 -0.003096 -0.000025 7.455114 -2.053956 0.598645 4.880482 -4.131177 1.111463 4.561549 -4.124259 1.136438 -2.218721 9.679853 -3.801123 19.291398 -16.094989 -1.368667 -179.388512 -79.899560 -2.181131 -19.239480 58.337151 27.115083 -33.211617 -10.605988 1.010240 -2.681108 -16.153913 15.032174 -166.642286 81.047988 15.082335 4.268047 -63.090854 -42.900155 -43.928293 16.458060 -1.689954 -0.171858 4.884771 -17.713853 
179.735992 88.858002 -396.787994 97.519569 1.756283 91.464074 167.796793 9.805204 174.378418 -24.496593 -1.120987 3.228425 76.421621 -0.917097 4.582257 21.454550 0.003086 -0.000002 157.182146 11.806513 -174.669766 -69.492394 -0.096209 1.131599 69.636538 2.710323 9.959832 21.454563 -0.003118 -0.000012 7.500975 -1.964410 0.336893 4.981862 -3.941439 0.589828 4.662959 -3.937666 0.613654 -1.423015 9.950686 -3.631057 18.974281 -16.445714 -1.167440 178.774082 -80.110216 -0.319137 -22.762521 57.960091 24.868485 -33.860728 -10.689393 1.029598 -2.858436 -16.212245 15.427785 -163.025291 80.657082 18.753428 4.863441 -63.511422 -41.374953 -44.421594 16.832088 -1.728969 -0.423489 7.418571 -15.548705 
179.605392 88.947144 -393.890411 97.175553 1.856237 91.921622 169.747194 9.478192 174.761988 -24.846116 -0.982359 3.454644 78.272096 -1.107911 4.717913 21.454550 0.003088 0.000001 154.307620 11.428400 -176.297619 -64.656306 0.935354 1.318167 73.476491 2.252633 10.263607 21.454557 -0.003113 -0.000015 7.527451 -1.819869 0.146786 5.041175 -3.644400 0.214794 4.722369 -3.642898 0.236835 -0.887666 10.271621 -3.477884 18.860254 -16.840672 -0.978748 176.681503 -80.205436 1.802832 -26.213293 57.409133 22.645926 -34.584772 -10.782287 1.051530 -2.882492 -16.218489 15.410918 -159.699576 80.253391 22.133185 5.272915 -64.021890 -39.941587 -44.596026 17.102468 -1.751900 -0.385752 10.020265 -13.179620 
179.453903 89.093658 -391.025208 96.651166 1.852156 92.244239 171.835675 8.970900 175.359411 -24.603760 -0.866663 3.505088 79.751065 -1.202603 4.706601 21.454553 0.003095 0.000000 152.216831 10.731699 -177.274158 -57.818268 1.461388 1.931978 75.523915 1.168438 8.892753 21.454557 -0.003117 -0.000016 7.534364 -1.646207 -0.011415 5.059329 -3.290388 -0.094350 4.740655 -3.290740 -0.074457 -0.543929 10.652742 -3.292387 18.730255 -17.377647 -0.723289 174.181244 -80.116405 4.342294 -29.081439 56.685868 20.773342 -35.526799 -11.018629 1.088183 -2.933327 -16.136737 15.463407 -156.663216 79.755101 25.224669 4.856716 -64.266309 -38.673480 -44.465843 17.157039 -1.751648 -0.043501 12.000833 -11.182353 
179.274002 89.307289 -388.190887 95.907850 1.725695 92.537664 174.065800 8.209498 176.041951 -23.735269 -0.785402 3.512960 80.893100 -1.274249 4.618546 21.454551 0.003089 0.000000 150.710569 10.042097 -177.263435 -49.764215 1.482875 2.541642 75.661598 0.542442 8.375854 21.454563 -0.003108 -0.000016 7.508342 -1.442465 -0.185692 5.010848 -2.875635 -0.433383 4.692318 -2.878067 -0.415977 -0.207855 11.184436 -3.035001 18.494173 -18.150673 -0.345183 171.246025 -80.007764 7.324008 -31.065483 56.089619 19.210392 -36.732156 -11.390031 1.140512 -3.116366 -16.117633 15.861660 -153.940620 79.108467 28.004971 3.260515 -64.061034 -37.653351 -43.954514 16.947856 -1.722912 0.398050 12.822540 -10.032716 
179.098099 89.301277 -385.313202 95.674182 1.511348 92.959025 176.159950 7.865795 176.583995 -23.033372 -0.742333 3.609603 82.123237 -1.418537 4.477595 21.454551 0.003083 0.000000 149.981542 9.848701 -176.523015 -40.652214 1.338601 2.921463 75.144669 -0.113388 7.015257 21.454562 -0.003099 -0.000018 7.458662 -1.351417 -0.436989 4.916721 -2.683252 -0.930838 4.598287 -2.688699 -0.914593 0.154235 11.860984 -2.698609 18.255704 -19.096847 0.140646 167.758161 -79.966851 10.864027 -32.141111 55.719515 17.915303 -38.144073 -11.762668 1.198998 -3.361186 -16.309833 16.296227 -151.605092 78.365731 30.398966 0.873410 -63.459212 -37.074383 -43.086968 16.520003 -1.669803 0.610114 12.361981 -9.983296 
178.933395 89.307426 -382.412201 95.404308 1.248017 93.444173 178.455863 7.450702 177.253750 -21.816799 -0.778752 3.647180 83.001675 -1.489918 4.413492 21.454551 0.003088 -0.000000 149.897640 9.741102 -175.611212 -31.239766 1.543604 2.809397 74.727276 0.014296 7.174469 21.454560 -0.003101 -0.000017 7.391375 -1.265291 -0.704159 4.786969 -2.500653 -1.459980 4.468648 -2.509281 -1.444846 0.418106 12.610559 -2.356435 18.174491 -20.051050 0.628085 163.792403 -80.047918 14.882764 -32.763857 55.631160 16.803008 -39.531137 -12.027478 1.251143 -3.591207 -16.656369 16.421055 -149.709400 77.601829 32.350590 -1.751225 -62.736811 -36.832823 -41.984650 15.994167 -1.604339 0.519361 10.979334 -10.926253 
178.776001 89.211487 -379.419403 95.318418 0.985493 93.913592 -179.068545 7.126405 177.933982 -20.344830 -0.919042 3.684076 83.672146 -1.535074 4.422820 21.454551 0.003094 0.000001 150.496183 9.909502 -175.613576 -21.365368 2.569652 3.058376 73.066242 0.134669 7.936105 21.454558 -0.003101 -0.000016 7.314888 -1.217544 -0.946017 4.638261 -2.396550 -1.940105 4.320050 -2.408090 -1.925583 0.518937 13.212793 -2.079695 18.259565 -20.771251 1.003502 160.214108 -80.202287 18.502597 -33.405028 55.727988 15.921296 -40.572126 -12.166601 1.287223 -3.842132 -16.963985 16.413059 -148.086820 76.948016 34.024143 -3.831178 -62.177200 -36.970178 -40.778217 15.502062 -1.539174 0.224653 9.343595 -12.498703 
178.614105 89.011673 -376.332703 95.319764 0.765540 94.179607 -176.555213 6.796103 178.511502 -18.953626 -1.141880 3.704151 84.118397 -1.567919 4.394671 21.454553 0.003080 -0.000002 151.222410 9.971890 -177.315044 -12.791935 3.883918 4.134284 72.576531 -0.372642 8.855603 21.454560 -0.003108 -0.000019 7.232337 -1.182947 -1.101944 4.475551 -2.322827 -2.248859 4.157441 -2.336242 -2.234786 0.468422 13.546792 -1.913471 18.404595 -21.172466 1.217615 157.944655 -80.368992 20.793350 -34.309758 55.953408 15.259027 -41.098618 -12.236505 1.305711 -4.188538 -17.070598 16.717732 -146.692902 76.485066 35.460665 -4.901091 -61.935698 -37.411589 -39.598937 15.117490 -1.482805 -0.187515 8.246562 -14.149922 
178.407593 88.417023 -372.958801 95.897051 0.700614 94.312447 -174.377188 6.924800 178.746542 -19.013749 -1.316631 3.861590 84.905597 -1.700141 4.370815 21.454551 0.003089 0.000001 150.108734 10.322092 179.289747 -10.551267 4.463724 4.834006 73.732302 -0.184819 11.531320 21.454555 -0.003101 -0.000016 7.173532 -1.245051 -1.209778 4.361521 -2.444123 -2.465735 4.043427 -2.458822 -2.450940 0.242151 13.609709 -1.832590 18.505204 -21.320668 1.321600 157.663524 -80.469355 21.073118 -35.320066 56.233719 14.812408 -41.204523 -12.308770 1.313280 -4.595584 -16.888860 17.521947 -145.831833 76.225512 36.347992 -4.822337 -61.907612 -38.151050 -38.517182 14.828127 -1.436126 -0.617355 8.287539 -15.029495 
178.141800 87.917107 -369.614288 95.875953 0.693290 94.133852 -172.273777 6.553990 178.866562 -19.159468 -1.322875 3.865212 85.496135 -1.765770 4.155403 21.454557 0.003098 -0.000001 149.817413 9.698110 176.444659 -10.644659 4.555059 5.030647 73.566745 -0.190504 11.955320 21.454562 -0.003119 -0.000019 7.117888 -1.178897 -1.214508 4.248749 -2.312922 -2.471537 3.930677 -2.327655 -2.457533 -0.135823 13.537077 -1.785803 18.513204 -21.428276 1.403401 158.734033 -80.403655 19.992309 -35.957015 56.660145 14.573359 -41.109782 -12.425811 1.318450 -4.945135 -16.396168 18.635317 -145.603705 76.069709 36.586274 -4.201108 -61.978789 -38.872376 -37.445986 14.566599 -1.392351 -0.867306 9.377961 -14.488640 
177.780396 87.556969 -366.221008 95.284725 0.621414 93.981866 -170.436770 5.677796 178.718101 -19.532849 -1.038133 3.924661 85.618819 -1.906749 3.726703 21.454551 0.003082 -0.000000 149.563603 8.391207 175.580381 -13.404686 4.576940 5.019169 70.308185 -0.607872 9.642743 21.454558 -0.003103 -0.000016 7.027972 -0.980012 -1.201232 4.064069 -1.917729 -2.436096 3.746080 -1.932256 -2.424482 -0.520382 13.433383 -1.740106 18.515709 -21.652992 1.484589 159.989204 -80.121575 18.734283 -35.641631 57.338332 14.764779 -40.905375 -12.559318 1.321801 -5.130983 -15.798226 19.672550 -145.576726 75.818624 36.623065 -3.519945 -61.971741 -39.462306 -36.215237 14.251662 -1.342130 -0.744542 10.752768 -12.849979 
177.323898 87.271393 -362.623199 94.576796 0.412404 93.978349 -169.260762 4.698896 177.954855 -20.925220 -0.344010 4.288258 84.611031 -2.250312 3.242003 21.454545 0.003091 0.000003 148.584113 6.992793 176.815566 -18.108146 4.174566 4.423879 66.095659 -0.808304 6.926230 21.454557 -0.003119 -0.000020 6.871583 -0.729035 -1.218492 3.745856 -1.418808 -2.459814 3.427959 -1.433496 -2.451205 -0.742269 13.280146 -1.661021 18.689875 -22.019953 1.541311 161.374516 -79.682640 17.350127 -34.255557 58.342506 15.532439 -40.444948 -12.604458 1.312647 -5.130554 -15.440268 20.421697 -145.344882 75.408622 36.874777 -2.917752 -61.798233 -39.846029 -34.745521 13.861817 -1.282712 -0.311108 11.579987 -11.338327 
176.821899 87.087791 -358.941498 93.583769 0.203065 93.785683 -168.612208 3.571906 176.633132 -23.160326 0.758421 4.734743 82.147320 -2.707685 2.504900 21.454550 0.003096 -0.000002 147.944561 5.585801 179.265022 -22.570787 3.578717 3.533215 63.622898 -0.568435 5.430119 21.454558 -0.003107 -0.000017 6.694008 -0.392744 -1.197600 3.383150 -0.750889 -2.406053 3.065316 -0.765270 -2.401472 -0.757340 12.949858 -1.516925 19.075067 -22.426871 1.563366 163.045508 -79.246785 15.673932 -32.174436 59.701440 16.567834 -39.541881 -12.465069 1.280127 -4.932350 -15.437442 20.908601 -145.042018 75.049743 37.197511 -2.450268 -61.528530 -39.883271 -33.124444 13.466710 -1.221271 0.229189 11.704848 -10.705078 
176.296494 86.956032 -355.293213 92.273451 0.221147 93.412153 -168.603001 2.295899 175.179476 -26.593048 2.135627 4.980411 78.508708 -3.030367 1.901100 21.454555 0.003102 -0.000002 147.825484 3.963004 -178.559641 -26.861440 3.200452 2.716938 64.134841 -0.668148 3.661413 21.454558 -0.003100 -0.000017 6.583286 0.029366 -1.133916 3.152885 0.089027 -2.266611 2.835040 0.075468 -2.267107 -0.633804 12.445666 -1.341816 19.548778 -22.807248 1.547812 164.094188 -78.968967 14.620944 -29.766292 61.284043 17.636464 -38.171554 -12.110887 1.222489 -4.434784 -15.676761 20.995279 -145.044244 74.971326 37.198166 -2.187500 -61.258321 -39.649675 -31.588491 13.158883 -1.169125 0.744148 11.603159 -10.550981 
175.701004 87.064400 -351.833099 90.474134 0.489111 93.202815 -169.712224 0.413404 173.946955 -31.915466 3.552591 5.110899 73.520184 -3.285870 1.412183 21.454550 0.003089 -0.000000 148.985701 1.794798 -177.631678 -29.453941 3.264204 2.617067 66.904053 -1.302765 1.951927 21.454557 -0.003118 -0.000019 6.565063 0.550930 -1.063324 3.107026 1.129680 -2.111844 2.789092 1.117027 -2.118625 -0.427807 11.933915 -1.246392 20.069739 -23.103183 1.430180 163.416893 -78.915924 15.310919 -27.362390 62.781460 19.037043 -36.491785 -11.585543 1.147645 -3.557294 -16.021643 20.386663 -145.454179 75.068342 36.775764 -2.307158 -60.923102 -39.318397 -30.458850 12.942293 -1.132528 1.169331 11.708352 -10.170197 
175.027496 87.307602 -348.615387 88.564058 0.816469 93.465763 -172.506673 -2.155798 173.142236 -39.723684 4.727552 5.131140 67.480104 -4.118426 -0.697784 21.454557 0.003091 0.000002 150.929463 -0.516679 -177.950279 -30.378861 3.742725 3.438471 69.320594 -2.177555 1.249564 21.454558 -0.003107 -0.000018 6.588701 1.072199 -1.027929 3.145904 2.171410 -2.027170 2.827772 2.159275 -2.040249 -0.175916 11.602816 -1.330384 20.694215 -23.227749 1.137194 161.385909 -79.095080 17.364738 -25.291562 63.888449 21.150164 -34.843766 -10.989940 1.070893 -2.535524 -16.158711 19.526495 -145.996304 75.069824 36.222003 -2.830048 -60.377868 -39.087171 -29.977728 12.793376 -1.113569 1.438235 12.052343 -9.427074 
174.362900 87.594414 -345.598785 86.783523 1.085582 94.134746 -176.892815 -4.771701 172.949488 -49.029997 5.890610 4.454150 60.408461 -5.134456 -3.685840 21.454543 0.003090 -0.000002 153.104633 -2.667210 -178.542552 -30.386002 4.294935 4.565484 71.401582 -3.064528 1.065027 21.454560 -0.003115 -0.000019 6.610962 1.533812 -1.013561 3.183421 3.094418 -1.985971 2.865016 3.082503 -2.004620 -0.015986 11.482232 -1.583469 21.321846 -23.144161 0.720320 159.544613 -79.493409 19.214353 -23.534839 64.596070 23.800988 -33.740721 -10.509771 1.015248 -1.899336 -15.654435 19.610265 -146.458886 74.903659 35.755385 -3.665333 -59.648677 -38.934978 -30.161651 12.770806 -1.115653 1.555218 12.383333 -8.710288 
173.798996 87.827713 -342.756500 85.254551 1.335004 94.804467 177.991123 -6.803294 173.431699 -58.063759 6.779927 3.256132 54.819235 -5.381634 -5.313044 21.454557 0.003098 -0.000004 155.195517 -4.446306 -178.690084 -30.255235 4.781599 5.300074 73.403954 -3.621017 0.971701 21.454560 -0.003108 -0.000017 6.654743 1.906346 -0.958219 3.267218 3.838477 -1.864078 2.948518 3.827298 -1.887263 -0.074068 11.450539 -1.914025 21.655176 -22.919653 0.326054 158.844792 -80.026417 19.898320 -21.718680 64.989387 26.383718 -33.577821 -10.314840 0.998973 -1.869522 -14.494184 20.990869 -147.005711 74.735732 35.202488 -4.833692 -58.941746 -38.500065 -30.805574 12.936670 -1.138997 1.588648 12.553906 -8.300736 
